0 IRIDIUM 33 DEB
1 38029U 97051YR  13281.24277957  .00022760  00000-0  40070-2 0  3446
2 38029 086.3581 114.0982 0006533 220.7088 139.3638 14.67457388612784
0 IRIDIUM 33 DEB
1 38029U 97051YR  13283.28831347  .00050685  00000-0  88519-2 0  3459
2 38029 086.3579 113.1810 0006341 214.3698 145.7107 14.67653972613087
0 IRIDIUM 33 DEB
1 38029U 97051YR  13283.97010156  .00045067  00000-0  78683-2 0  3462
2 38029 086.3582 112.8766 0006216 211.8627 148.2212 14.67702989613181
0 IRIDIUM 33 DEB
1 38029U 97051YR  13285.26543890  .00039005  00000-0  68013-2 0  3474
2 38029 086.3595 112.2974 0006434 207.6146 152.4727 14.67795560613377
0 IRIDIUM 33 DEB
1 38029U 97051YR  13287.24237617  .00043617  00000-0  75772-2 0  3486
2 38029 086.3570 111.4175 0006624 200.5756 159.5193 14.67931802613662
0 IRIDIUM 33 DEB
1 38029U 97051YR  13287.78770438  .00060175  00000-0  10416-1 0  3490
2 38029 086.3572 111.1745 0006617 199.2823 160.8142 14.67988608613749
0 IRIDIUM 33 DEB
1 38029U 97051YR  13288.46933068  .00068306  00000-0  11788-1 0  3505
2 38029 086.3574 110.8707 0006469 197.0292 163.0706 14.68070235613847
0 IRIDIUM 33 DEB
1 38029U 97051YR  13289.21907575  .00060014  00000-0  10353-1 0  3519
2 38029 086.3564 110.5355 0006479 194.1701 165.9333 14.68140434613954
0 IRIDIUM 33 DEB
1 38029U 97051YR  13290.24140243  .00063377  00000-0  10906-1 0  3536
2 38029 086.3560 110.0791 0006484 190.8334 169.2742 14.68228804614107
0 IRIDIUM 33 DEB
1 38029U 97051YR  13290.78662979  .00048515  00000-0  84167-2 0  3527
2 38029 086.3584 109.8358 0006190 182.3449 177.8232 14.68300492614186
0 IRIDIUM 33 DEB
1 38029U 97051YR  13292.21771140  .00051943  00000-0  89136-2 0  3540
2 38029 086.3554 109.2012 0006469 185.3878 174.7268 14.68424944614399
0 IRIDIUM 33 DEB
1 38029U 97051YR  13293.44426015  .00056850  00000-0  97232-2 0  3553
2 38029 086.3550 108.6520 0006280 181.5979 178.5217 14.68541947614572
0 IRIDIUM 33 DEB
1 38029U 97051YR  13293.92122592  .00056376  00000-0  96341-2 0  3563
2 38029 086.3564 108.4387 0006082 178.0306 182.0934 14.68582894614641
0 IRIDIUM 33 DEB
1 38029U 97051YR  13295.21577173  .00067666  00000-0  11514-1 0  3579
2 38029 086.3579 107.8599 0006124 174.2420 185.8866 14.68700295614830
